CCSDS_OMM_VERS = 2.0
CREATION_DATE  = 
ORIGINATOR     = 

OBJECT_NAME    = DELTA 1 R/B
OBJECT_ID      = 1989-089B
CENTER_NAME    = EARTH
REF_FRAME      = TEME
TIME_SYSTEM    = UTC
MEAN_ELEMENT_THEORY = SGP/SGP4

EPOCH          = 2025-11-11T04:25:36.786720
MEAN_MOTION    = 14.50532073
ECCENTRICITY   = .00702667
INCLINATION    = 97.0781
RA_OF_ASC_NODE = 176.4189
ARG_OF_PERICENTER = 136.1290
MEAN_ANOMALY   = 224.5518

EPHEMERIS_TYPE = 0
CLASSIFICATION_TYPE = U
NORAD_CAT_ID   = 20323
ELEMENT_SET_NO = 999
REV_AT_EPOCH   = 87855
BSTAR          = .18060063E-3
MEAN_MOTION_DOT = .695E-5
MEAN_MOTION_DDOT = 0

CCSDS_OMM_VERS = 2.0
CREATION_DATE  = 
ORIGINATOR     = 

OBJECT_NAME    = ARIANE 40 R/B
OBJECT_ID      = 1990-005H
CENTER_NAME    = EARTH
REF_FRAME      = TEME
TIME_SYSTEM    = UTC
MEAN_ELEMENT_THEORY = SGP/SGP4

EPOCH          = 2025-11-11T04:31:10.410816
MEAN_MOTION    = 14.39760863
ECCENTRICITY   = .00098673
INCLINATION    = 98.3287
RA_OF_ASC_NODE = 14.2515
ARG_OF_PERICENTER = 195.2391
MEAN_ANOMALY   = 164.8502

EPHEMERIS_TYPE = 0
CLASSIFICATION_TYPE = U
NORAD_CAT_ID   = 20443
ELEMENT_SET_NO = 999
REV_AT_EPOCH   = 87575
BSTAR          = .21524267E-3
MEAN_MOTION_DOT = .632E-5
MEAN_MOTION_DDOT = 0

CCSDS_OMM_VERS = 2.0
CREATION_DATE  = 
ORIGINATOR     = 

OBJECT_NAME    = DELTA 2 R/B(1)
OBJECT_ID      = 1990-008B
CENTER_NAME    = EARTH
REF_FRAME      = TEME
TIME_SYSTEM    = UTC
MEAN_ELEMENT_THEORY = SGP/SGP4

EPOCH          = 2025-11-11T03:00:37.437984
MEAN_MOTION    = 15.42256618
ECCENTRICITY   = .01184138
INCLINATION    = 35.6064
RA_OF_ASC_NODE = 224.2266
ARG_OF_PERICENTER = 250.7444
MEAN_ANOMALY   = 108.0445

EPHEMERIS_TYPE = 0
CLASSIFICATION_TYPE = U
NORAD_CAT_ID   = 20453
ELEMENT_SET_NO = 999
REV_AT_EPOCH   = 90774
BSTAR          = .72818903E-3
MEAN_MOTION_DOT = .4196E-3
MEAN_MOTION_DDOT = 0

CCSDS_OMM_VERS = 2.0
CREATION_DATE  = 
ORIGINATOR     = 

OBJECT_NAME    = COSMOS 2058
OBJECT_ID      = 1990-010A
CENTER_NAME    = EARTH
REF_FRAME      = TEME
TIME_SYSTEM    = UTC
MEAN_ELEMENT_THEORY = SGP/SGP4

EPOCH          = 2025-11-11T06:53:06.412128
MEAN_MOTION    = 15.10099006
ECCENTRICITY   = .00112321
INCLINATION    = 82.4659
RA_OF_ASC_NODE = 163.9731
ARG_OF_PERICENTER = 27.6704
MEAN_ANOMALY   = 332.5121

EPHEMERIS_TYPE = 0
CLASSIFICATION_TYPE = U
NORAD_CAT_ID   = 20465
ELEMENT_SET_NO = 999
REV_AT_EPOCH   = 92436
BSTAR          = .31478088E-3
MEAN_MOTION_DOT = .5162E-4
MEAN_MOTION_DDOT = 0

CCSDS_OMM_VERS = 2.0
CREATION_DATE  = 
ORIGINATOR     = 

OBJECT_NAME    = SL-14 R/B
OBJECT_ID      = 1990-010B
CENTER_NAME    = EARTH
REF_FRAME      = TEME
TIME_SYSTEM    = UTC
MEAN_ELEMENT_THEORY = SGP/SGP4

EPOCH          = 2025-11-11T05:53:18.480192
MEAN_MOTION    = 14.83427828
ECCENTRICITY   = .00191136
INCLINATION    = 82.5050
RA_OF_ASC_NODE = 18.6223
ARG_OF_PERICENTER = 334.2429
MEAN_ANOMALY   = 25.7832

EPHEMERIS_TYPE = 0
CLASSIFICATION_TYPE = U
NORAD_CAT_ID   = 20466
ELEMENT_SET_NO = 999
REV_AT_EPOCH   = 91092
BSTAR          = .96302927E-4
MEAN_MOTION_DOT = .816E-5
MEAN_MOTION_DDOT = 0

CCSDS_OMM_VERS = 2.0
CREATION_DATE  = 
ORIGINATOR     = 

OBJECT_NAME    = SL-14 R/B
OBJECT_ID      = 1990-018B
CENTER_NAME    = EARTH
REF_FRAME      = TEME
TIME_SYSTEM    = UTC
MEAN_ELEMENT_THEORY = SGP/SGP4

EPOCH          = 2025-11-11T03:34:57.851616
MEAN_MOTION    = 14.81999990
ECCENTRICITY   = .00177721
INCLINATION    = 82.5207
RA_OF_ASC_NODE = 333.8952
ARG_OF_PERICENTER = 119.7318
MEAN_ANOMALY   = 240.5668

EPHEMERIS_TYPE = 0
CLASSIFICATION_TYPE = U
NORAD_CAT_ID   = 20511
ELEMENT_SET_NO = 999
REV_AT_EPOCH   = 90502
BSTAR          = .77298942E-4
MEAN_MOTION_DOT = .638E-5
MEAN_MOTION_DDOT = 0

CCSDS_OMM_VERS = 2.0
CREATION_DATE  = 
ORIGINATOR     = 

OBJECT_NAME    = HST
OBJECT_ID      = 1990-037B
CENTER_NAME    = EARTH
REF_FRAME      = TEME
TIME_SYSTEM    = UTC
MEAN_ELEMENT_THEORY = SGP/SGP4

EPOCH          = 2025-11-10T18:47:22.414848
MEAN_MOTION    = 15.27415033
ECCENTRICITY   = .00014257
INCLINATION    = 28.4673
RA_OF_ASC_NODE = 129.9029
ARG_OF_PERICENTER = 233.3500
MEAN_ANOMALY   = 126.6964

EPHEMERIS_TYPE = 0
CLASSIFICATION_TYPE = U
NORAD_CAT_ID   = 20580
ELEMENT_SET_NO = 999
REV_AT_EPOCH   = 75510
BSTAR          = .29101438E-3
MEAN_MOTION_DOT = .8261E-4
MEAN_MOTION_DDOT = 0

CCSDS_OMM_VERS = 2.0
CREATION_DATE  = 
ORIGINATOR     = 

OBJECT_NAME    = SL-16 R/B
OBJECT_ID      = 1990-046B
CENTER_NAME    = EARTH
REF_FRAME      = TEME
TIME_SYSTEM    = UTC
MEAN_ELEMENT_THEORY = SGP/SGP4

EPOCH          = 2025-11-11T01:48:48.167136
MEAN_MOTION    = 14.14991025
ECCENTRICITY   = .00122607
INCLINATION    = 70.9977
RA_OF_ASC_NODE = 187.0189
ARG_OF_PERICENTER = 131.2535
MEAN_ANOMALY   = 228.9646

EPHEMERIS_TYPE = 0
CLASSIFICATION_TYPE = U
NORAD_CAT_ID   = 20625
ELEMENT_SET_NO = 999
REV_AT_EPOCH   = 83161
BSTAR          = -.84647023E-4
MEAN_MOTION_DOT = -.212E-5
MEAN_MOTION_DDOT = 0

CCSDS_OMM_VERS = 2.0
CREATION_DATE  = 
ORIGINATOR     = 

OBJECT_NAME    = COSMOS 2084
OBJECT_ID      = 1990-055A
CENTER_NAME    = EARTH
REF_FRAME      = TEME
TIME_SYSTEM    = UTC
MEAN_ELEMENT_THEORY = SGP/SGP4

EPOCH          = 2025-11-11T06:29:53.007360
MEAN_MOTION    = 15.04735528
ECCENTRICITY   = .00368634
INCLINATION    = 62.7920
RA_OF_ASC_NODE = 19.1972
ARG_OF_PERICENTER = 170.9510
MEAN_ANOMALY   = 189.2263

EPHEMERIS_TYPE = 0
CLASSIFICATION_TYPE = U
NORAD_CAT_ID   = 20663
ELEMENT_SET_NO = 999
REV_AT_EPOCH   = 91849
BSTAR          = .35586103E-3
MEAN_MOTION_DOT = .4911E-4
MEAN_MOTION_DDOT = 0

CCSDS_OMM_VERS = 2.0
CREATION_DATE  = 
ORIGINATOR     = 

OBJECT_NAME    = SL-6 R/B(2)
OBJECT_ID      = 1990-055D
CENTER_NAME    = EARTH
REF_FRAME      = TEME
TIME_SYSTEM    = UTC
MEAN_ELEMENT_THEORY = SGP/SGP4

EPOCH          = 2025-11-11T07:07:59.827872
MEAN_MOTION    = 15.02840231
ECCENTRICITY   = .00107554
INCLINATION    = 62.7841
RA_OF_ASC_NODE = 296.2336
ARG_OF_PERICENTER = 281.5067
MEAN_ANOMALY   = 78.4824

EPHEMERIS_TYPE = 0
CLASSIFICATION_TYPE = U
NORAD_CAT_ID   = 20666
ELEMENT_SET_NO = 999
REV_AT_EPOCH   = 92039
BSTAR          = .33587628E-3
MEAN_MOTION_DOT = .4334E-4
MEAN_MOTION_DDOT = 0

CCSDS_OMM_VERS = 2.0
CREATION_DATE  = 
ORIGINATOR     = 

OBJECT_NAME    = SL-8 R/B
OBJECT_ID      = 1990-078B
CENTER_NAME    = EARTH
REF_FRAME      = TEME
TIME_SYSTEM    = UTC
MEAN_ELEMENT_THEORY = SGP/SGP4

EPOCH          = 2025-11-11T04:44:41.390592
MEAN_MOTION    = 14.84182743
ECCENTRICITY   = .03814404
INCLINATION    = 82.9071
RA_OF_ASC_NODE = 357.4980
ARG_OF_PERICENTER = 51.4394
MEAN_ANOMALY   = 312.0353

EPHEMERIS_TYPE = 0
CLASSIFICATION_TYPE = U
NORAD_CAT_ID   = 20775
ELEMENT_SET_NO = 999
REV_AT_EPOCH   = 79169
BSTAR          = .68726687E-3
MEAN_MOTION_DOT = .2226E-3
MEAN_MOTION_DDOT = 0

CCSDS_OMM_VERS = 2.0
CREATION_DATE  = 
ORIGINATOR     = 

OBJECT_NAME    = SL-8 R/B
OBJECT_ID      = 1991-006B
CENTER_NAME    = EARTH
REF_FRAME      = TEME
TIME_SYSTEM    = UTC
MEAN_ELEMENT_THEORY = SGP/SGP4

EPOCH          = 2025-11-11T07:24:36.938304
MEAN_MOTION    = 13.77483450
ECCENTRICITY   = .00228534
INCLINATION    = 82.9412
RA_OF_ASC_NODE = 258.0921
ARG_OF_PERICENTER = 10.4487
MEAN_ANOMALY   = 99.0805

EPHEMERIS_TYPE = 0
CLASSIFICATION_TYPE = U
NORAD_CAT_ID   = 21088
ELEMENT_SET_NO = 999
REV_AT_EPOCH   = 74777
BSTAR          = .16626309E-3
MEAN_MOTION_DOT = .181E-5
MEAN_MOTION_DDOT = 0

