DELTA 1 R/B             
1 20323U 89089B   25315.18445355  .00000695  00000+0  18060-3 0  9992
2 20323  97.0781 176.4189 0070266 136.1290 224.5518 14.50532073878553
ARIANE 40 R/B           
1 20443U 90005H   25315.18831494  .00000632  00000+0  21524-3 0  9998
2 20443  98.3287  14.2515 0009867 195.2391 164.8502 14.39760863875755
DELTA 2 R/B(1)          
1 20453U 90008B   25315.12543331  .00041960  00000+0  72819-3 0  9998
2 20453  35.6064 224.2266 0118413 250.7444 108.0445 15.42256618907747
COSMOS 2058             
1 20465U 90010A   25315.28687977  .00005162  00000+0  31478-3 0  9996
2 20465  82.4659 163.9731 0011232  27.6704 332.5121 15.10099006924360
SL-14 R/B               
1 20466U 90010B   25315.24535278  .00000816  00000+0  96303-4 0  9999
2 20466  82.5050  18.6223 0019113 334.2429  25.7832 14.83427828910929
SL-14 R/B               
1 20511U 90018B   25315.14928069  .00000638  00000+0  77299-4 0  9996
2 20511  82.5207 333.8952 0017772 119.7318 240.5668 14.81999990905028
HST                     
1 20580U 90037B   25314.78289832  .00008261  00000+0  29101-3 0  9998
2 20580  28.4673 129.9029 0001425 233.3500 126.6964 15.27415033755100
SL-16 R/B               
1 20625U 90046B   25315.07555749 -.00000212  00000+0 -84647-4 0  9991
2 20625  70.9977 187.0189 0012260 131.2535 228.9646 14.14991025831613
COSMOS 2084             
1 20663U 90055A   25315.27075240  .00004911  00000+0  35586-3 0  9993
2 20663  62.7920  19.1972 0036863 170.9510 189.2263 15.04735528918495
SL-6 R/B(2)             
1 20666U 90055D   25315.29722023  .00004334  00000+0  33588-3 0  9995
2 20666  62.7841 296.2336 0010755 281.5067  78.4824 15.02840231920390
SL-8 R/B                
1 20775U 90078B   25315.19770128  .00022260  00000+0  68727-3 0  9990
2 20775  82.9071 357.4980 0381440  51.4394 312.0353 14.84182743791693
SL-8 R/B                
1 21088U 91006B   25315.30876086  .00000181  00000+0  16626-3 0  9992
2 21088  82.9412 258.0921 0022853  10.4487  99.0805 13.77483450747773
